STARLINK-32274          
1 60922U 24154V   25335.45533840  .00000069  00000+0  14457-4 0  9994
2 60922  53.1600  20.2166 0001041  85.2505 274.8614 15.30186099 71309
STARLINK-32373          
1 60923U 24154W   25335.53014785  .00001402  00000+0  59449-4 0  9998
2 60923  53.1605  19.9725 0001023  91.5202 268.5916 15.30194993 71313
STARLINK-11239 [DTC]    
1 60924U 24155A   25335.61441762  .00000259  00000+0  69923-5 0  9996
2 60924  53.1584 105.0934 0000954  85.2433 274.8693 15.69708445 72999
STARLINK-11245 [DTC]    
1 60925U 24155B   25335.59970016  .00000809  00000+0  11531-4 0  9995
2 60925  53.1591 104.9961 0000989 106.6629 253.4498 15.69710114 72991
STARLINK-11244 [DTC]    
1 60926U 24155C   25335.65356106 -.00000710  00000+0 -99732-6 0  9995
2 60926  53.1593 104.6159 0001176  77.2587 282.8562 15.69709228 73055
STARLINK-11243 [DTC]    
1 60927U 24155D   25335.65846170  .00001029  00000+0  13351-4 0  9994
2 60927  53.1601 104.6463 0000892  75.4283 284.6834 15.69711365 73003
STARLINK-11238 [DTC]    
1 60928U 24155E   25335.64865238  .00001140  00000+0  14266-4 0  9990
2 60928  53.1593 104.5817 0001140  80.1833 279.9314 15.69709722 73056
STARLINK-11240 [DTC]    
1 60929U 24155F   25335.64374906  .00001251  00000+0  15183-4 0  9990
2 60929  53.1596 104.5503 0000846  75.1379 284.9733 15.69702989 73007
STARLINK-11251 [DTC]    
1 60930U 24155G   25335.63884374 -.00000015  00000+0  47373-5 0  9991
2 60930  53.1589 104.5175 0001122  64.4051 295.7083 15.69708935 73007
STARLINK-11204 [DTC]    
1 60931U 24155H   25335.63394272  .00003048  00000+0  30034-4 0  9998
2 60931  53.1594 104.4833 0001233  92.5377 267.5782 15.69689815 73008
STARLINK-11207 [DTC]    
1 60933U 24155K   25335.62412764  .00000565  00000+0  95197-5 0  9999
2 60933  53.1580 104.4179 0001080  63.8205 296.2924 15.69708863 73001
STARLINK-11237 [DTC]    
1 60934U 24155L   25335.55555441  .00000856  00000+0  11923-4 0  9999
2 60934  53.1597 104.6992 0001015  99.1347 260.9786 15.69706908 73004
STARLINK-11253 [DTC]    
1 60935U 24155M   25335.67317356  .00001433  00000+0  16679-4 0  9999
2 60935  53.1588 104.7423 0001023  65.9445 294.1680 15.69718534 73004
STARLINK-11241 [DTC]    
1 60936U 24155N   25335.66828612 -.00002085  00000+0 -12360-4 0  9990
2 60936  53.1602 104.7071 0001132  73.9674 286.1468 15.69696194 73007
