[{"OBJECT_NAME":"STARLINK-32274","OBJECT_ID":"2024-154V","EPOCH":"2025-12-01T10:55:41.236896","MEAN_MOTION":15.30186099,"ECCENTRICITY":0.0001041,"INCLINATION":53.16,"RA_OF_ASC_NODE":20.2166,"ARG_OF_PERICENTER":85.2505,"MEAN_ANOMALY":274.8614,"EPHEMERIS_TYPE":0,"CLASSIFICATION_TYPE":"U","NORAD_CAT_ID":60922,"ELEMENT_SET_NO":999,"REV_AT_EPOCH":7130,"BSTAR":1.4457e-5,"MEAN_MOTION_DOT":6.9e-7,"MEAN_MOTION_DDOT":0},{"OBJECT_NAME":"STARLINK-32373","OBJECT_ID":"2024-154W","EPOCH":"2025-12-01T12:43:24.774240","MEAN_MOTION":15.30194993,"ECCENTRICITY":0.0001024,"INCLINATION":53.1605,"RA_OF_ASC_NODE":19.9725,"ARG_OF_PERICENTER":91.5202,"MEAN_ANOMALY":268.5916,"EPHEMERIS_TYPE":0,"CLASSIFICATION_TYPE":"U","NORAD_CAT_ID":60923,"ELEMENT_SET_NO":999,"REV_AT_EPOCH":7131,"BSTAR":5.9449e-5,"MEAN_MOTION_DOT":1.402e-5,"MEAN_MOTION_DDOT":0},{"OBJECT_NAME":"STARLINK-11239 [DTC]","OBJECT_ID":"2024-155A","EPOCH":"2025-12-01T14:44:45.682368","MEAN_MOTION":15.69708445,"ECCENTRICITY":9.54e-5,"INCLINATION":53.1584,"RA_OF_ASC_NODE":105.0934,"ARG_OF_PERICENTER":85.2433,"MEAN_ANOMALY":274.8693,"EPHEMERIS_TYPE":0,"CLASSIFICATION_TYPE":"U","NORAD_CAT_ID":60924,"ELEMENT_SET_NO":999,"REV_AT_EPOCH":7299,"BSTAR":6.9923e-6,"MEAN_MOTION_DOT":2.59e-6,"MEAN_MOTION_DDOT":0},{"OBJECT_NAME":"STARLINK-11245 [DTC]","OBJECT_ID":"2024-155B","EPOCH":"2025-12-01T14:23:34.092960","MEAN_MOTION":15.69710114,"ECCENTRICITY":9.89e-5,"INCLINATION":53.1591,"RA_OF_ASC_NODE":104.9961,"ARG_OF_PERICENTER":106.6629,"MEAN_ANOMALY":253.4498,"EPHEMERIS_TYPE":0,"CLASSIFICATION_TYPE":"U","NORAD_CAT_ID":60925,"ELEMENT_SET_NO":999,"REV_AT_EPOCH":7299,"BSTAR":1.1531e-5,"MEAN_MOTION_DOT":8.09e-6,"MEAN_MOTION_DDOT":0},{"OBJECT_NAME":"STARLINK-11244 [DTC]","OBJECT_ID":"2024-155C","EPOCH":"2025-12-01T15:41:07.674720","MEAN_MOTION":15.69709228,"ECCENTRICITY":0.0001176,"INCLINATION":53.1593,"RA_OF_ASC_NODE":104.6159,"ARG_OF_PERICENTER":77.2587,"MEAN_ANOMALY":282.8562,"EPHEMERIS_TYPE":0,"CLASSIFICATION_TYPE":"U","NORAD_CAT_ID":60926,"ELEMENT_SET_NO":999,"REV_AT_EPOCH":7305,"BSTAR":-9.9732e-7,"MEAN_MOTION_DOT":-7.1e-6,"MEAN_MOTION_DDOT":0},{"OBJECT_NAME":"STARLINK-11243 [DTC]","OBJECT_ID":"2024-155D","EPOCH":"2025-12-01T15:48:11.090880","MEAN_MOTION":15.69711365,"ECCENTRICITY":8.92e-5,"INCLINATION":53.1601,"RA_OF_ASC_NODE":104.6463,"ARG_OF_PERICENTER":75.4283,"MEAN_ANOMALY":284.6834,"EPHEMERIS_TYPE":0,"CLASSIFICATION_TYPE":"U","NORAD_CAT_ID":60927,"ELEMENT_SET_NO":999,"REV_AT_EPOCH":7300,"BSTAR":1.3351e-5,"MEAN_MOTION_DOT":1.029e-5,"MEAN_MOTION_DDOT":0},{"OBJECT_NAME":"STARLINK-11238 [DTC]","OBJECT_ID":"2024-155E","EPOCH":"2025-12-01T15:34:03.564768","MEAN_MOTION":15.69709722,"ECCENTRICITY":0.000114,"INCLINATION":53.1593,"RA_OF_ASC_NODE":104.5817,"ARG_OF_PERICENTER":80.1833,"MEAN_ANOMALY":279.9314,"EPHEMERIS_TYPE":0,"CLASSIFICATION_TYPE":"U","NORAD_CAT_ID":60928,"ELEMENT_SET_NO":999,"REV_AT_EPOCH":7305,"BSTAR":1.4266e-5,"MEAN_MOTION_DOT":1.14e-5,"MEAN_MOTION_DDOT":0},{"OBJECT_NAME":"STARLINK-11240 [DTC]","OBJECT_ID":"2024-155F","EPOCH":"2025-12-01T15:26:59.917920","MEAN_MOTION":15.69702989,"ECCENTRICITY":8.47e-5,"INCLINATION":53.1596,"RA_OF_ASC_NODE":104.5503,"ARG_OF_PERICENTER":75.1379,"MEAN_ANOMALY":284.9733,"EPHEMERIS_TYPE":0,"CLASSIFICATION_TYPE":"U","NORAD_CAT_ID":60929,"ELEMENT_SET_NO":999,"REV_AT_EPOCH":7300,"BSTAR":1.5183e-5,"MEAN_MOTION_DOT":1.251e-5,"MEAN_MOTION_DDOT":0},{"OBJECT_NAME":"STARLINK-11251 [DTC]","OBJECT_ID":"2024-155G","EPOCH":"2025-12-01T15:19:56.099136","MEAN_MOTION":15.69708935,"ECCENTRICITY":0.0001123,"INCLINATION":53.1589,"RA_OF_ASC_NODE":104.5175,"ARG_OF_PERICENTER":64.4051,"MEAN_ANOMALY":295.7083,"EPHEMERIS_TYPE":0,"CLASSIFICATION_TYPE":"U","NORAD_CAT_ID":60930,"ELEMENT_SET_NO":999,"REV_AT_EPOCH":7300,"BSTAR":4.7373e-6,"MEAN_MOTION_DOT":-1.5e-7,"MEAN_MOTION_DDOT":0},{"OBJECT_NAME":"STARLINK-11204 [DTC]","OBJECT_ID":"2024-155H","EPOCH":"2025-12-01T15:12:52.651008","MEAN_MOTION":15.69689815,"ECCENTRICITY":0.0001233,"INCLINATION":53.1594,"RA_OF_ASC_NODE":104.4833,"ARG_OF_PERICENTER":92.5377,"MEAN_ANOMALY":267.5782,"EPHEMERIS_TYPE":0,"CLASSIFICATION_TYPE":"U","NORAD_CAT_ID":60931,"ELEMENT_SET_NO":999,"REV_AT_EPOCH":7300,"BSTAR":3.0034e-5,"MEAN_MOTION_DOT":3.048e-5,"MEAN_MOTION_DDOT":0},{"OBJECT_NAME":"STARLINK-11207 [DTC]","OBJECT_ID":"2024-155K","EPOCH":"2025-12-01T14:58:44.628096","MEAN_MOTION":15.69708863,"ECCENTRICITY":0.000108,"INCLINATION":53.158,"RA_OF_ASC_NODE":104.4179,"ARG_OF_PERICENTER":63.8205,"MEAN_ANOMALY":296.2924,"EPHEMERIS_TYPE":0,"CLASSIFICATION_TYPE":"U","NORAD_CAT_ID":60933,"ELEMENT_SET_NO":999,"REV_AT_EPOCH":7300,"BSTAR":9.5197e-6,"MEAN_MOTION_DOT":5.65e-6,"MEAN_MOTION_DDOT":0},{"OBJECT_NAME":"STARLINK-11237 [DTC]","OBJECT_ID":"2024-155L","EPOCH":"2025-12-01T13:19:59.901024","MEAN_MOTION":15.69706908,"ECCENTRICITY":0.0001016,"INCLINATION":53.1597,"RA_OF_ASC_NODE":104.6992,"ARG_OF_PERICENTER":99.1347,"MEAN_ANOMALY":260.9786,"EPHEMERIS_TYPE":0,"CLASSIFICATION_TYPE":"U","NORAD_CAT_ID":60934,"ELEMENT_SET_NO":999,"REV_AT_EPOCH":7300,"BSTAR":1.1923e-5,"MEAN_MOTION_DOT":8.56e-6,"MEAN_MOTION_DDOT":0},{"OBJECT_NAME":"STARLINK-11253 [DTC]","OBJECT_ID":"2024-155M","EPOCH":"2025-12-01T16:09:22.195584","MEAN_MOTION":15.69718534,"ECCENTRICITY":0.0001023,"INCLINATION":53.1588,"RA_OF_ASC_NODE":104.7423,"ARG_OF_PERICENTER":65.9445,"MEAN_ANOMALY":294.168,"EPHEMERIS_TYPE":0,"CLASSIFICATION_TYPE":"U","NORAD_CAT_ID":60935,"ELEMENT_SET_NO":999,"REV_AT_EPOCH":7300,"BSTAR":1.6679e-5,"MEAN_MOTION_DOT":1.433e-5,"MEAN_MOTION_DDOT":0},{"OBJECT_NAME":"STARLINK-11241 [DTC]","OBJECT_ID":"2024-155N","EPOCH":"2025-12-01T16:02:19.920768","MEAN_MOTION":15.69696194,"ECCENTRICITY":0.0001132,"INCLINATION":53.1602,"RA_OF_ASC_NODE":104.7071,"ARG_OF_PERICENTER":73.9674,"MEAN_ANOMALY":286.1468,"EPHEMERIS_TYPE":0,"CLASSIFICATION_TYPE":"U","NORAD_CAT_ID":60936,"ELEMENT_SET_NO":999,"REV_AT_EPOCH":7300,"BSTAR":-1.236e-5,"MEAN_MOTION_DOT":-2.085e-5,"MEAN_MOTION_DDOT":0}]
